[{"OBJECT_NAME":"ALOS (DAICHI)","OBJECT_ID":"2006-002A","EPOCH":"2026-03-21T09:59:21.952320","MEAN_MOTION":14.69845399,"ECCENTRICITY":7.026e-5,"INCLINATION":98.124,"RA_OF_ASC_NODE":36.3145,"ARG_OF_PERICENTER":87.713,"MEAN_ANOMALY":272.4156,"EPHEMERIS_TYPE":0,"CLASSIFICATION_TYPE":"U","NORAD_CAT_ID":28931,"ELEMENT_SET_NO":999,"REV_AT_EPOCH":7520,"BSTAR":0.00022916718,"MEAN_MOTION_DOT":1.32e-5,"MEAN_MOTION_DDOT":0},{"OBJECT_NAME":"H-2A R/B","OBJECT_ID":"2006-002B","EPOCH":"2026-03-21T10:04:22.943136","MEAN_MOTION":15.16664932,"ECCENTRICITY":0.00522196,"INCLINATION":98.2438,"RA_OF_ASC_NODE":228.4557,"ARG_OF_PERICENTER":200.7859,"MEAN_ANOMALY":159.1249,"EPHEMERIS_TYPE":0,"CLASSIFICATION_TYPE":"U","NORAD_CAT_ID":28932,"ELEMENT_SET_NO":999,"REV_AT_EPOCH":9621,"BSTAR":0.00068741852,"MEAN_MOTION_DOT":0.00013867,"MEAN_MOTION_DDOT":0},{"OBJECT_NAME":"RESURS-DK 1","OBJECT_ID":"2006-021A","EPOCH":"2026-03-21T15:15:33.624576","MEAN_MOTION":15.12823441,"ECCENTRICITY":7.386e-5,"INCLINATION":69.9337,"RA_OF_ASC_NODE":206.12,"ARG_OF_PERICENTER":119.47,"MEAN_ANOMALY":240.654,"EPHEMERIS_TYPE":0,"CLASSIFICATION_TYPE":"U","NORAD_CAT_ID":29228,"ELEMENT_SET_NO":999,"REV_AT_EPOCH":8933,"BSTAR":0.00018606646,"MEAN_MOTION_DOT":3.17e-5,"MEAN_MOTION_DDOT":0},{"OBJECT_NAME":"CZ-4B R/B","OBJECT_ID":"2006-046C","EPOCH":"2026-03-21T14:44:52.366272","MEAN_MOTION":15.17017631,"ECCENTRICITY":0.00321051,"INCLINATION":97.5563,"RA_OF_ASC_NODE":125.4906,"ARG_OF_PERICENTER":224.0908,"MEAN_ANOMALY":135.7765,"EPHEMERIS_TYPE":0,"CLASSIFICATION_TYPE":"U","NORAD_CAT_ID":29507,"ELEMENT_SET_NO":999,"REV_AT_EPOCH":6185,"BSTAR":0.00029818651,"MEAN_MOTION_DOT":5.903e-5,"MEAN_MOTION_DDOT":0},{"OBJECT_NAME":"CZ-2C R/B","OBJECT_ID":"2007-010B","EPOCH":"2026-03-21T13:28:36.160032","MEAN_MOTION":14.20250317,"ECCENTRICITY":0.00578667,"INCLINATION":98.399,"RA_OF_ASC_NODE":193.2459,"ARG_OF_PERICENTER":259.4153,"MEAN_ANOMALY":100.0503,"EPHEMERIS_TYPE":0,"CLASSIFICATION_TYPE":"U","NORAD_CAT_ID":31114,"ELEMENT_SET_NO":999,"REV_AT_EPOCH":98140,"BSTAR":8.0427212e-5,"MEAN_MOTION_DOT":1.33e-6,"MEAN_MOTION_DDOT":0},{"OBJECT_NAME":"COSMO-SKYMED 1","OBJECT_ID":"2007-023A","EPOCH":"2026-03-21T13:34:25.908960","MEAN_MOTION":14.96624678,"ECCENTRICITY":0.0001303,"INCLINATION":97.888,"RA_OF_ASC_NODE":271.6946,"ARG_OF_PERICENTER":86.8108,"MEAN_ANOMALY":273.3262,"EPHEMERIS_TYPE":0,"CLASSIFICATION_TYPE":"U","NORAD_CAT_ID":31598,"ELEMENT_SET_NO":999,"REV_AT_EPOCH":1668,"BSTAR":0.00032689176,"MEAN_MOTION_DOT":3.666e-5,"MEAN_MOTION_DDOT":0},{"OBJECT_NAME":"COSMOS 2428","OBJECT_ID":"2007-029A","EPOCH":"2026-03-21T13:40:36.828480","MEAN_MOTION":14.12947716,"ECCENTRICITY":0.00095551,"INCLINATION":70.9441,"RA_OF_ASC_NODE":178.4093,"ARG_OF_PERICENTER":264.8991,"MEAN_ANOMALY":95.104,"EPHEMERIS_TYPE":0,"CLASSIFICATION_TYPE":"U","NORAD_CAT_ID":31792,"ELEMENT_SET_NO":999,"REV_AT_EPOCH":96577,"BSTAR":2.6217153e-5,"MEAN_MOTION_DOT":1.0e-8,"MEAN_MOTION_DDOT":0},{"OBJECT_NAME":"SL-16 R/B","OBJECT_ID":"2007-029B","EPOCH":"2026-03-21T14:24:19.058976","MEAN_MOTION":14.14840343,"ECCENTRICITY":0.00024043,"INCLINATION":70.9757,"RA_OF_ASC_NODE":147.3494,"ARG_OF_PERICENTER":276.7547,"MEAN_ANOMALY":233.1539,"EPHEMERIS_TYPE":0,"CLASSIFICATION_TYPE":"U","NORAD_CAT_ID":31793,"ELEMENT_SET_NO":999,"REV_AT_EPOCH":96705,"BSTAR":0.00019491282,"MEAN_MOTION_DOT":3.28e-6,"MEAN_MOTION_DDOT":0},{"OBJECT_NAME":"KORONAS-FOTON","OBJECT_ID":"2009-003A","EPOCH":"2026-03-21T13:31:38.916768","MEAN_MOTION":15.43609056,"ECCENTRICITY":0.00118142,"INCLINATION":82.4271,"RA_OF_ASC_NODE":263.5281,"ARG_OF_PERICENTER":111.0473,"MEAN_ANOMALY":249.2039,"EPHEMERIS_TYPE":0,"CLASSIFICATION_TYPE":"U","NORAD_CAT_ID":33504,"ELEMENT_SET_NO":999,"REV_AT_EPOCH":94757,"BSTAR":0.00042822757,"MEAN_MOTION_DOT":0.00019361,"MEAN_MOTION_DDOT":0},{"OBJECT_NAME":"CZ-2C R/B","OBJECT_ID":"2011-030B","EPOCH":"2026-03-21T10:38:04.652160","MEAN_MOTION":14.81263847,"ECCENTRICITY":0.00514428,"INCLINATION":97.8566,"RA_OF_ASC_NODE":37.4727,"ARG_OF_PERICENTER":313.4137,"MEAN_ANOMALY":158.8156,"EPHEMERIS_TYPE":0,"CLASSIFICATION_TYPE":"U","NORAD_CAT_ID":37731,"ELEMENT_SET_NO":999,"REV_AT_EPOCH":79183,"BSTAR":0.00019321483,"MEAN_MOTION_DOT":1.485e-5,"MEAN_MOTION_DDOT":0},{"OBJECT_NAME":"H-2A R/B","OBJECT_ID":"2012-025E","EPOCH":"2026-03-21T10:33:10.799712","MEAN_MOTION":14.95245783,"ECCENTRICITY":0.0043044,"INCLINATION":98.475,"RA_OF_ASC_NODE":48.4284,"ARG_OF_PERICENTER":274.5044,"MEAN_ANOMALY":85.1258,"EPHEMERIS_TYPE":0,"CLASSIFICATION_TYPE":"U","NORAD_CAT_ID":38341,"ELEMENT_SET_NO":999,"REV_AT_EPOCH":74997,"BSTAR":0.00032133315,"MEAN_MOTION_DOT":3.531e-5,"MEAN_MOTION_DDOT":0},{"OBJECT_NAME":"SHIJIAN-16 (SJ-16)","OBJECT_ID":"2013-057A","EPOCH":"2026-03-21T15:05:27.202848","MEAN_MOTION":14.92389076,"ECCENTRICITY":0.00152975,"INCLINATION":74.9737,"RA_OF_ASC_NODE":162.4885,"ARG_OF_PERICENTER":81.8079,"MEAN_ANOMALY":278.4844,"EPHEMERIS_TYPE":0,"CLASSIFICATION_TYPE":"U","NORAD_CAT_ID":39358,"ELEMENT_SET_NO":999,"REV_AT_EPOCH":67328,"BSTAR":6.5025831e-5,"MEAN_MOTION_DOT":6.38e-6,"MEAN_MOTION_DDOT":0},{"OBJECT_NAME":"SL-4 R/B","OBJECT_ID":"2014-021B","EPOCH":"2026-03-21T13:46:24.776832","MEAN_MOTION":15.39553605,"ECCENTRICITY":0.00965344,"INCLINATION":51.6051,"RA_OF_ASC_NODE":279.2839,"ARG_OF_PERICENTER":146.2792,"MEAN_ANOMALY":214.4384,"EPHEMERIS_TYPE":0,"CLASSIFICATION_TYPE":"U","NORAD_CAT_ID":39679,"ELEMENT_SET_NO":999,"REV_AT_EPOCH":65810,"BSTAR":0.00044110381,"MEAN_MOTION_DOT":0.00020366,"MEAN_MOTION_DDOT":0},{"OBJECT_NAME":"ALOS-2","OBJECT_ID":"2014-029A","EPOCH":"2026-03-21T13:18:09.664992","MEAN_MOTION":14.79414699,"ECCENTRICITY":0.00017765,"INCLINATION":97.9195,"RA_OF_ASC_NODE":178.9792,"ARG_OF_PERICENTER":108.8536,"MEAN_ANOMALY":251.2868,"EPHEMERIS_TYPE":0,"CLASSIFICATION_TYPE":"U","NORAD_CAT_ID":39766,"ELEMENT_SET_NO":999,"REV_AT_EPOCH":63862,"BSTAR":0.00019102538,"MEAN_MOTION_DOT":1.374e-5,"MEAN_MOTION_DDOT":0},{"OBJECT_NAME":"YAOGAN-29","OBJECT_ID":"2015-069A","EPOCH":"2026-03-21T14:26:57.130368","MEAN_MOTION":14.83006183,"ECCENTRICITY":0.00011214,"INCLINATION":98.0122,"RA_OF_ASC_NODE":109.0622,"ARG_OF_PERICENTER":16.1137,"MEAN_ANOMALY":344.0111,"EPHEMERIS_TYPE":0,"CLASSIFICATION_TYPE":"U","NORAD_CAT_ID":41038,"ELEMENT_SET_NO":999,"REV_AT_EPOCH":55764,"BSTAR":-5.590869e-6,"MEAN_MOTION_DOT":-9.9e-7,"MEAN_MOTION_DDOT":0},{"OBJECT_NAME":"ASTRO-H (HITOMI)","OBJECT_ID":"2016-012A","EPOCH":"2026-03-20T20:54:39.400704","MEAN_MOTION":15.10072583,"ECCENTRICITY":0.0009612,"INCLINATION":30.9992,"RA_OF_ASC_NODE":284.387,"ARG_OF_PERICENTER":83.5875,"MEAN_ANOMALY":276.5858,"EPHEMERIS_TYPE":0,"CLASSIFICATION_TYPE":"U","NORAD_CAT_ID":41337,"ELEMENT_SET_NO":999,"REV_AT_EPOCH":55392,"BSTAR":0.00015946662,"MEAN_MOTION_DOT":2.757e-5,"MEAN_MOTION_DDOT":0}]
