ALOS (DAICHI)           
1 28931U 06002A   26080.41622630  .00001320  00000+0  22917-3 0  9990
2 28931  98.1240  36.3145 0000702  87.7130 272.4156 14.69845399 75205
H-2A R/B                
1 28932U 06002B   26080.41970999  .00013867  00000+0  68742-3 0  9990
2 28932  98.2438 228.4557 0052219 200.7859 159.1249 15.16664932 96215
RESURS-DK 1             
1 29228U 06021A   26080.63580584  .00003170  00000+0  18607-3 0  9992
2 29228  69.9337 206.1200 0000738 119.4700 240.6540 15.12823441 89338
CZ-4B R/B               
1 29507U 06046C   26080.61449498  .00005903  00000+0  29819-3 0  9998
2 29507  97.5563 125.4906 0032105 224.0908 135.7765 15.17017631 61859
CZ-2C R/B               
1 31114U 07010B   26080.56152963  .00000133  00000+0  80427-4 0  9992
2 31114  98.3990 193.2459 0057866 259.4153 100.0503 14.20250317981400
COSMO-SKYMED 1          
1 31598U 07023A   26080.56557765  .00003666  00000+0  32689-3 0  9991
2 31598  97.8880 271.6946 0001303  86.8108 273.3262 14.96624678 16680
COSMOS 2428             
1 31792U 07029A   26080.56987070  .00000001  00000+0  26217-4 0  9990
2 31792  70.9441 178.4093 0009555 264.8991  95.1040 14.12947716965779
SL-16 R/B               
1 31793U 07029B   26080.60022059  .00000328  00000+0  19491-3 0  9990
2 31793  70.9757 147.3494 0002404 276.7547 233.1539 14.14840343967055
KORONAS-FOTON           
1 33504U 09003A   26080.56364487  .00019361  00000+0  42823-3 0  9997
2 33504  82.4271 263.5281 0011814 111.0473 249.2039 15.43609056947570
CZ-2C R/B               
1 37731U 11030B   26080.44310940  .00001485  00000+0  19321-3 0  9993
2 37731  97.8566  37.4727 0051442 313.4137 158.8156 14.81263847791838
H-2A R/B                
1 38341U 12025E   26080.43970833  .00003531  00000+0  32133-3 0  9998
2 38341  98.4750  48.4284 0043044 274.5044  85.1258 14.95245783749978
SHIJIAN-16 (SJ-16)      
1 39358U 13057A   26080.62878707  .00000638  00000+0  65026-4 0  9994
2 39358  74.9737 162.4885 0015297  81.8079 278.4844 14.92389076673280
SL-4 R/B                
1 39679U 14021B   26080.57389788  .00020366  00000+0  44110-3 0  9992
2 39679  51.6051 279.2839 0096534 146.2792 214.4384 15.39553605658100
ALOS-2                  
1 39766U 14029A   26080.55427853  .00001374  00000+0  19103-3 0  9993
2 39766  97.9195 178.9792 0001776 108.8536 251.2868 14.79414699638629
YAOGAN-29               
1 41038U 15069A   26080.60205012 -.00000099  00000+0 -55909-5 0  9991
2 41038  98.0122 109.0622 0001121  16.1137 344.0111 14.83006183557649
ASTRO-H (HITOMI)        
1 41337U 16012A   26079.87128936  .00002757  00000+0  15947-3 0  9995
2 41337  30.9992 284.3870 0009612  83.5875 276.5858 15.10072583553925
